[Satellite]
VERSION=1.1
NAME=RADUGA 11 [-]
NICKNAME=RADUGA 11 [-]
TLE1=1 13669U 82113A   15053.44664711 -.00000104  00000-0  00000+0 0  9992
TLE2=2 13669  15.4143 349.1496 0043280 180.0700   2.9638  0.97708002 81149
